{
  "links" : {
    "next" : "https://api.nasa.gov/neo/rest/v1/feed?start_date=2006-03-23&end_date=2006-03-23&detailed=true&api_key=t0TVs3DtDT2H8Oy2Zy8m2eVrNsAVKAexjcZXUckd",
    "prev" : "https://api.nasa.gov/neo/rest/v1/feed?start_date=2006-03-21&end_date=2006-03-21&detailed=true&api_key=t0TVs3DtDT2H8Oy2Zy8m2eVrNsAVKAexjcZXUckd",
    "self" : "https://api.nasa.gov/neo/rest/v1/feed?start_date=2006-03-22&end_date=2006-03-22&detailed=true&api_key=t0TVs3DtDT2H8Oy2Zy8m2eVrNsAVKAexjcZXUckd"
  },
  "element_count" : 7,
  "near_earth_objects" : {
    "2006-03-22" : [ {
      "links" : {
        "self" : "https://api.nasa.gov/neo/rest/v1/neo/3072291?api_key=t0TVs3DtDT2H8Oy2Zy8m2eVrNsAVKAexjcZXUckd"
      },
      "neo_reference_id" : "3072291",
      "name" : "(2001 FO127)",
      "nasa_jpl_url" : "http://ssd.jpl.nasa.gov/sbdb.cgi?sstr=3072291",
      "absolute_magnitude_h" : 27.5,
      "estimated_diameter" : {
        "kilometers" : {
          "estimated_diameter_min" : 0.008405334,
          "estimated_diameter_max" : 0.0187948982
        },
        "meters" : {
          "estimated_diameter_min" : 8.4053340207,
          "estimated_diameter_max" : 18.7948982439
        },
        "miles" : {
          "estimated_diameter_min" : 0.0052228308,
          "estimated_diameter_max" : 0.0116786047
        },
        "feet" : {
          "estimated_diameter_min" : 27.5765560686,
          "estimated_diameter_max" : 61.6630539546
        }
      },
      "is_potentially_hazardous_asteroid" : false,
      "close_approach_data" : [ {
        "close_approach_date" : "2006-03-22",
        "epoch_date_close_approach" : 1143014400000,
        "relative_velocity" : {
          "kilometers_per_second" : "4.9829782148",
          "kilometers_per_hour" : "17938.7215733623",
          "miles_per_hour" : "11146.4239687372"
        },
        "miss_distance" : {
          "astronomical" : "0.0265523634",
          "lunar" : "10.3288698196",
          "kilometers" : "3972177.25",
          "miles" : "2468196.5"
        },
        "orbiting_body" : "Earth"
      } ],
      "orbital_data" : {
        "orbit_id" : "15",
        "orbit_determination_date" : "2017-04-06 09:16:26",
        "orbit_uncertainty" : "6",
        "minimum_orbit_intersection" : ".017912",
        "jupiter_tisserand_invariant" : "6.665",
        "epoch_osculation" : "2458000.5",
        "eccentricity" : ".158516791292177",
        "semi_major_axis" : ".88855079195061",
        "inclination" : "7.298970345630948",
        "ascending_node_longitude" : "189.1403375547427",
        "orbital_period" : "305.9298222018328",
        "perihelion_distance" : ".7477005715104766",
        "perihelion_argument" : "200.9260752535374",
        "aphelion_distance" : "1.029401012390744",
        "perihelion_time" : "2457981.127835258892",
        "mean_anomaly" : "22.79601006729512",
        "mean_motion" : "1.176740460962629",
        "equinox" : "J2000"
      }
    }, {
      "links" : {
        "self" : "https://api.nasa.gov/neo/rest/v1/neo/3292769?api_key=t0TVs3DtDT2H8Oy2Zy8m2eVrNsAVKAexjcZXUckd"
      },
      "neo_reference_id" : "3292769",
      "name" : "(2005 TS15)",
      "nasa_jpl_url" : "http://ssd.jpl.nasa.gov/sbdb.cgi?sstr=3292769",
      "absolute_magnitude_h" : 21.1,
      "estimated_diameter" : {
        "kilometers" : {
          "estimated_diameter_min" : 0.160160338,
          "estimated_diameter_max" : 0.358129403
        },
        "meters" : {
          "estimated_diameter_min" : 160.1603379786,
          "estimated_diameter_max" : 358.1294030194
        },
        "miles" : {
          "estimated_diameter_min" : 0.0995189894,
          "estimated_diameter_max" : 0.2225312253
        },
        "feet" : {
          "estimated_diameter_min" : 525.4604432536,
          "estimated_diameter_max" : 1174.9652706022
        }
      },
      "is_potentially_hazardous_asteroid" : true,
      "close_approach_data" : [ {
        "close_approach_date" : "2006-03-22",
        "epoch_date_close_approach" : 1143014400000,
        "relative_velocity" : {
          "kilometers_per_second" : "17.7025261521",
          "kilometers_per_hour" : "63729.0941476475",
          "miles_per_hour" : "39598.7807496868"
        },
        "miss_distance" : {
          "astronomical" : "0.3885155952",
          "lunar" : "151.1325683594",
          "kilometers" : "58121104",
          "miles" : "36114780"
        },
        "orbiting_body" : "Earth"
      } ],
      "orbital_data" : {
        "orbit_id" : "21",
        "orbit_determination_date" : "2017-04-06 09:10:19",
        "orbit_uncertainty" : "1",
        "minimum_orbit_intersection" : ".0051042",
        "jupiter_tisserand_invariant" : "4.892",
        "epoch_osculation" : "2458000.5",
        "eccentricity" : ".3529594731946024",
        "semi_major_axis" : "1.260418234268797",
        "inclination" : "33.99808309599398",
        "ascending_node_longitude" : "16.23037268167162",
        "orbital_period" : "516.8570482252533",
        "perihelion_distance" : ".8155416782964117",
        "perihelion_argument" : "106.0817105100445",
        "aphelion_distance" : "1.705294790241183",
        "perihelion_time" : "2457886.146344243735",
        "mean_anomaly" : "79.64932705012491",
        "mean_motion" : ".6965175404614143",
        "equinox" : "J2000"
      }
    }, {
      "links" : {
        "self" : "https://api.nasa.gov/neo/rest/v1/neo/3725759?api_key=t0TVs3DtDT2H8Oy2Zy8m2eVrNsAVKAexjcZXUckd"
      },
      "neo_reference_id" : "3725759",
      "name" : "(2015 PM57)",
      "nasa_jpl_url" : "http://ssd.jpl.nasa.gov/sbdb.cgi?sstr=3725759",
      "absolute_magnitude_h" : 18.6,
      "estimated_diameter" : {
        "kilometers" : {
          "estimated_diameter_min" : 0.5064714588,
          "estimated_diameter_max" : 1.1325046106
        },
        "meters" : {
          "estimated_diameter_min" : 506.4714588346,
          "estimated_diameter_max" : 1132.5046106177
        },
        "miles" : {
          "estimated_diameter_min" : 0.3147066768,
          "estimated_diameter_max" : 0.7037055224
        },
        "feet" : {
          "estimated_diameter_min" : 1661.651821003,
          "estimated_diameter_max" : 3715.566426699
        }
      },
      "is_potentially_hazardous_asteroid" : false,
      "close_approach_data" : [ {
        "close_approach_date" : "2006-03-22",
        "epoch_date_close_approach" : 1143014400000,
        "relative_velocity" : {
          "kilometers_per_second" : "24.2335084207",
          "kilometers_per_hour" : "87240.6303145884",
          "miles_per_hour" : "54207.9349863063"
        },
        "miss_distance" : {
          "astronomical" : "0.281378631",
          "lunar" : "109.4562835693",
          "kilometers" : "42093644",
          "miles" : "26155778"
        },
        "orbiting_body" : "Earth"
      } ],
      "orbital_data" : {
        "orbit_id" : "29",
        "orbit_determination_date" : "2017-04-06 08:32:30",
        "orbit_uncertainty" : "3",
        "minimum_orbit_intersection" : ".26948",
        "jupiter_tisserand_invariant" : "3.203",
        "epoch_osculation" : "2458000.5",
        "eccentricity" : ".7365619440862365",
        "semi_major_axis" : "2.201194759463794",
        "inclination" : "17.39557828939225",
        "ascending_node_longitude" : "112.9261735013228",
        "orbital_period" : "1192.850816445147",
        "perihelion_distance" : ".579878468120706",
        "perihelion_argument" : "341.8009552185193",
        "aphelion_distance" : "3.822511050806881",
        "perihelion_time" : "2458554.648383473669",
        "mean_anomaly" : "192.7591218447269",
        "mean_motion" : ".3017980077951806",
        "equinox" : "J2000"
      }
    } ]
  }
}